NORAD_CAT_ID,OBJECT_NAME,OBJECT_TYPE,EPOCH,MEAN_MOTION,ECCENTRICITY,INCLINATION,RA_OF_ASC_NODE,ARG_OF_PERICENTER,MEAN_ANOMALY,BSTAR,MEAN_MOTION_DOT,MEAN_MOTION_DDOT,TLE_LINE0,TLE_LINE1,TLE_LINE2,SEMIMAJOR_AXIS,PERIOD,APOGEE,PERIGEE,DECAYED
50838.0,STARLINK-3322,PAYLOAD,2022-10-09 13:41:33,15.08841064,0.0002026,53.2186,17.667,38.7239,321.3898,0.00042491,6.481e-05,0.0,0 STARLINK-3322,1 50838U 22001AM  22282.57052151  .00006481  00000-0  42491-3 0  9993,2 50838  53.2186  17.6670 0002026  38.7239 321.3898 15.08841064 43198,6917.877,95.437,541.144,538.341,0.0
50838.0,STARLINK-3322,PAYLOAD,2022-10-10 11:56:56,15.08847478,0.0002210999999999,53.2166,13.5049,35.6137,324.5002,0.00032476,4.885e-05,0.0,0 STARLINK-3322,1 50838U 22001AM  22283.49788009  .00004885  00000-0  32476-3 0  9991,2 50838  53.2166  13.5049 0002211  35.6137 324.5002 15.08847478 42130,6917.858,95.437,541.252,538.193,0.0
50838.0,STARLINK-3322,PAYLOAD,2022-10-11 05:26:11,15.08840729,0.0002138,53.2162,10.2348,42.6503,317.4655,8.8626e-05,1.123e-05,0.0,0 STARLINK-3322,1 50838U 22001AM  22284.22652102  .00001123  00000-0  88626-4 0  9998,2 50838  53.2162  10.2348 0002138  42.6503 317.4655 15.08840729 43447,6917.878000000002,95.438,541.222,538.264,0.0
50838.0,STARLINK-3322,PAYLOAD,2022-10-11 10:12:21,15.08831895,0.0002070999999999,53.2171,9.3402,40.1198,319.9947,-1.7703e-05,-5.700000000000001e-06,0.0,0 STARLINK-3322,1 50838U 22001AM  22284.42524717 -.00000570  00000-0 -17703-4 0  9995,2 50838  53.2171   9.3402 0002071  40.1198 319.9947 15.08831895 43474,6917.905,95.438,541.203,538.337,0.0
50838.0,STARLINK-3322,PAYLOAD,2022-10-11 14:58:30,15.08830958,0.0002243,53.2165,8.4473,44.9556,315.1617,3.3663e-05,2.47e-06,0.0,0 STARLINK-3322,1 50838U 22001AM  22284.62396876  .00000247  00000-0  33663-4 0  9992,2 50838  53.2165   8.4473 0002243  44.9556 315.1617 15.08830958 42308,6917.908,95.438,541.325,538.221,0.0
50838.0,STARLINK-3322,PAYLOAD,2022-10-12 03:41:35,15.08841274,0.0001994,53.2176,6.0693,40.0726,320.0413,6.536399999999999e-05,7.52e-06,0.0,0 STARLINK-3322,1 50838U 22001AM  22285.15388535  .00000752  00000-0  65364-4 0  9998,2 50838  53.2176   6.0693 0001994  40.0726 320.0413 15.08841274 43589,6917.876,95.437,541.121,538.362,0.0
50838.0,STARLINK-3322,PAYLOAD,2022-10-12 11:38:31,15.0883785,0.0002106999999999,53.2174,4.5821,41.1815,318.9336,-2.7472e-05,-7.25e-06,0.0,0 STARLINK-3322,1 50838U 22001AM  22285.48509009 -.00000725  00000-0 -27472-4 0  9995,2 50838  53.2174   4.5821 0002107  41.1815 318.9336 15.08837850 42439,6917.887,95.438,541.21,538.294,0.0
50838.0,STARLINK-3322,PAYLOAD,2022-10-12 14:49:17,15.08840766,0.0002125,53.2175,3.987,41.4923,318.623,-1.0592e-05,-4.57e-06,0.0,0 STARLINK-3322,1 50838U 22001AM  22285.61756744 -.00000457  00000-0 -10592-4 0  9997,2 50838  53.2175   3.9870 0002125  41.4923 318.6230 15.08840766 42452,6917.878000000002,95.438,541.2130000000002,538.273,0.0
50838.0,STARLINK-3322,PAYLOAD,2022-10-13 05:07:46,15.08834726,0.0002056999999999,53.2175,1.3114,39.0337,321.0803,0.00012712,1.735e-05,0.0,0 STARLINK-3322,1 50838U 22001AM  22286.21372804  .00001735  00000-0  12712-3 0  9998,2 50838  53.2175   1.3114 0002057  39.0337 321.0803 15.08834726 43747,6917.897,95.438,541.185,538.3380000000002,0.0
50838.0,STARLINK-3322,PAYLOAD,2022-10-13 11:29:18,15.08842878,0.000204,53.2174,0.1218,40.2718,319.8425,0.00019546,2.824e-05,0.0,0 STARLINK-3322,1 50838U 22001AM  22286.47868249  .00002824  00000-0  19546-3 0  9991,2 50838  53.2174   0.1218 0002040  40.2718 319.8425 15.08842878 42580,6917.871999999999,95.437,541.148,538.325,0.0
50838.0,STARLINK-3322,PAYLOAD,2022-10-14 11:20:05,15.08844795,0.0002261,53.2168,355.6624,37.3944,322.7205,0.00010647,1.407e-05,0.0,0 STARLINK-3322,1 50838U 22001AM  22287.47228354  .00001407  00000-0  10647-3 0  9998,2 50838  53.2168 355.6624 0002261  37.3944 322.7205 15.08844795 42731,6917.866,95.437,541.295,538.1669999999998,0.0
50838.0,STARLINK-3322,PAYLOAD,2022-10-15 11:10:53,15.08835827,0.0002188,53.2176,351.2014,37.5493,322.5651,-4.8195e-05,-1.055e-05,0.0,0 STARLINK-3322,1 50838U 22001AM  22288.46589185 -.00001055  00000-0 -48195-4 0  9991,2 50838  53.2176 351.2014 0002188  37.5493 322.5651 15.08835827 44083,6917.893,95.438,541.2719999999998,538.245,0.0
50838.0,STARLINK-3322,PAYLOAD,2022-10-15 14:21:39,15.08830214,0.0002211999999999,53.2169,350.6086,36.1134,324.0007,-6.5144e-05,-1.325e-05,0.0,0 STARLINK-3322,1 50838U 22001AM  22288.59837600 -.00001325  00000-0 -65144-4 0  9996,2 50838  53.2169 350.6086 0002212  36.1134 324.0007 15.08830214 42908,6917.91,95.438,541.306,538.245,0.0
50838.0,STARLINK-3322,PAYLOAD,2022-10-16 11:01:39,15.08845387,0.0002334999999999,53.2173,346.7418,37.8664,322.2492,4.2952e-05,3.95e-06,0.0,0 STARLINK-3322,1 50838U 22001AM  22289.45948586  .00000395  00000-0  42952-4 0  9994,2 50838  53.2173 346.7418 0002335  37.8664 322.2492 15.08845387 44233,6917.864000000001,95.437,541.344,538.114,0.0
50838.0,STARLINK-3322,PAYLOAD,2022-10-17 01:20:07,15.08834008,0.0002290999999999,53.2163,344.0671,42.6518,317.4651,0.00014459,2.013e-05,0.0,0 STARLINK-3322,1 50838U 22001AM  22290.05564800  .00002013  00000-0  14459-3 0  9994,2 50838  53.2163 344.0671 0002291  42.6518 317.4651 15.08834008 44328,6917.899,95.438,541.349,538.179,0.0
50838.0,STARLINK-3322,PAYLOAD,2022-10-17 10:52:27,15.08832723,0.0002286,53.2161,342.282,45.1181,314.9996,5.2848e-05,5.53e-06,0.0,0 STARLINK-3322,1 50838U 22001AM  22290.45309325  .00000553  00000-0  52848-4 0  9999,2 50838  53.2161 342.2820 0002286  45.1181 314.9996 15.08832723 43189,6917.903,95.438,541.349,538.186,0.0
50838.0,STARLINK-3322,PAYLOAD,2022-10-18 02:46:19,15.08830763,0.0002189999999999,53.2175,339.3081,39.1693,320.9457,-1.0969e-05,-4.63e-06,0.0,0 STARLINK-3322,1 50838U 22001AM  22291.11550068 -.00000463  00000-0 -10969-4 0  9995,2 50838  53.2175 339.3081 0002190  39.1693 320.9457 15.08830763 44480,6917.909000000002,95.438,541.289,538.259,0.0
50838.0,STARLINK-3322,PAYLOAD,2022-10-18 12:18:38,15.08833939,0.0002319,53.2176,337.5233,36.5846,323.5304,-4.2063e-05,-9.58e-06,0.0,0 STARLINK-3322,1 50838U 22001AM  22291.51294200 -.00000958  00000-0 -42063-4 0  9991,2 50838  53.2176 337.5233 0002319  36.5846 323.5304 15.08833939 43346,6917.899,95.438,541.368,538.16,0.0
50838.0,STARLINK-3322,PAYLOAD,2022-10-18 20:15:33,15.08839526,0.0002359,53.2175,336.0367,38.7605,321.3556,-6.0539e-06,-3.85e-06,0.0,0 STARLINK-3322,1 50838U 22001AM  22291.84413846 -.00000385  00000-0 -60539-5 0  9999,2 50838  53.2175 336.0367 0002359  38.7605 321.3556 15.08839526 43396,6917.882,95.438,541.379,538.115,0.0
50838.0,STARLINK-3322,PAYLOAD,2022-10-19 02:37:06,15.08836824,0.0002296999999999,53.2171,334.8466,35.7483,324.3663,7.906100000000001e-05,9.7e-06,0.0,0 STARLINK-3322,1 50838U 22001AM  22292.10909749  .00000970  00000-0  79061-4 0  9998,2 50838  53.2171 334.8466 0002297  35.7483 324.3663 15.08836824 44638,6917.89,95.438,541.344,538.1659999999998,0.0
50838.0,STARLINK-3322,PAYLOAD,2022-10-19 12:09:25,15.08831491,0.000202,53.2157,333.0635,45.3836,314.7321,-1.2036e-06,-3.07e-06,0.0,0 STARLINK-3322,1 50838U 22001AM  22292.50654450 -.00000307  00000-0 -12036-5 0  9994,2 50838  53.2157 333.0635 0002020  45.3836 314.7321 15.08831491 44699,6917.906,95.438,541.169,538.374,0.0
50838.0,STARLINK-3322,PAYLOAD,2022-10-20 02:27:53,15.08835687,0.0002336999999999,53.2163,330.3877,34.0637,326.0505,0.00013997,1.94e-05,0.0,0 STARLINK-3322,1 50838U 22001AM  22293.10270105  .00001940  00000-0  13997-3 0  9999,2 50838  53.2163 330.3877 0002337  34.0637 326.0505 15.08835687 44780,6917.894,95.438,541.375,538.1419999999998,0.0
50838.0,STARLINK-3322,PAYLOAD,2022-10-20 08:49:25,15.08838331,0.0002400999999999,53.2169,329.1976,34.1396,325.975,0.0001503,2.104e-05,0.0,0 STARLINK-3322,1 50838U 22001AM  22293.36766094  .00002104  00000-0  15030-3 0  9997,2 50838  53.2169 329.1976 0002401  34.1396 325.9750 15.08838331 43628,6917.885,95.438,541.411,538.09,0.0
50838.0,STARLINK-3322,PAYLOAD,2022-10-21 03:54:03,15.08844845,0.0002360999999999,53.2169,325.6288,38.1869,321.9290000000001,5.9401e-05,6.57e-06,0.0,0 STARLINK-3322,1 50838U 22001AM  22294.16254032  .00000657  00000-0  59401-4 0  9992,2 50838  53.2169 325.6288 0002361  38.1869 321.9290 15.08844845 44947,6917.866,95.437,541.364,538.097,0.0
50838.0,STARLINK-3322,PAYLOAD,2022-10-21 08:40:12,15.08847738,0.0002320999999999,53.2168,324.7362,39.2059,320.9101,0.00010179,1.332e-05,0.0,0 STARLINK-3322,1 50838U 22001AM  22294.36125688  .00001332  00000-0  10179-3 0  9997,2 50838  53.2168 324.7362 0002321  39.2059 320.9101 15.08847738 43772,6917.857,95.437,541.327,538.116,0.0
50838.0,STARLINK-3322,PAYLOAD,2022-10-22 11:41:46,15.08834506,0.0002381999999999,53.2173,319.682,39.1995,320.9169,0.00010757,1.424e-05,0.0,0 STARLINK-3322,1 50838U 22001AM  22295.48734573  .00001424  00000-0  10757-3 0  9994,2 50838  53.2173 319.6820 0002382  39.1995 320.9169 15.08834506 43947,6917.897,95.438,541.41,538.114,0.0
50838.0,STARLINK-3322,PAYLOAD,2022-10-23 05:11:00,15.08853171,0.0002483,53.2171,316.4105,38.9385,321.1785,8.1866e-05,1.015e-05,0.0,0 STARLINK-3322,1 50838U 22001AM  22296.21597364  .00001015  00000-0  81866-4 0  9997,2 50838  53.2171 316.4105 0002483  38.9385 321.1785 15.08853171 45250,6917.84,95.437,541.423,537.987,0.0
50838.0,STARLINK-3322,PAYLOAD,2022-10-23 11:32:32,15.08847683,0.0002483,53.2172,315.2212,38.1272,321.9895,3.5664e-05,2.79e-06,0.0,0 STARLINK-3322,1 50838U 22001AM  22296.48093709  .00000279  00000-0  35664-4 0  9996,2 50838  53.2172 315.2212 0002483  38.1272 321.9895 15.08847683 45299,6917.857,95.437,541.44,538.004,0.0
50838.0,STARLINK-3322,PAYLOAD,2022-10-23 17:54:05,15.08846153,0.0002395,53.2173,314.0316,39.9371,320.1797,6.8272e-05,7.99e-06,0.0,0 STARLINK-3322,1 50838U 22001AM  22296.74589613  .00000799  00000-0  68272-4 0  9997,2 50838  53.2173 314.0316 0002395  39.9371 320.1797 15.08846153 44138,6917.861999999999,95.437,541.383,538.07,0.0
